STARLINK-31508          
1 59503U 24071V   26068.18395426 -.00003974  00000+0 -13500-3 0  9992
2 59503  43.0000 342.9980 0001588 245.9634 114.1051 15.27573533108127
NUSAT-48 (HENRIETTA LE*)
1 60498U 24149AG  26068.80506098  .00012988  00000+0  45212-3 0  9999
2 60498  97.3923 150.8264 0002754 263.3026  96.7901 15.29812597 86946
